{"type": "FeatureCollection", "features": [ {"type": "Feature", "properties": {"norad_id": 33745, "name": "FENGYUN 1C DEB", "group": "fengyun-1c-debris", "lat": 17.38998919208376, "lon": -149.00356636963403, "alt_km": 819.1443806816242, "timestamp": "2025-12-16T19:34:24.554803+00:00", "meta": {"OBJECT_NAME": "FENGYUN 1C DEB", "OBJECT_ID": "1999-025DJJ", "EPOCH": "2025-12-13T01:19:37.273728", "MEAN_MOTION": 14.22320724, "ECCENTRICITY": 0.00541028, "INCLINATION": 99.1146, "RA_OF_ASC_NODE": 24.2285, "ARG_OF_PERICENTER": 265.2923, "MEAN_ANOMALY": 94.2073, "EPHEMERIS_TYPE": 0, "CLASSIFICATION_TYPE": "U", "NORAD_CAT_ID": 33745, "ELEMENT_SET_NO": 999, "REV_AT_EPOCH": 66006, "BSTAR": 0.0019074216, "MEAN_MOTION_DOT": 4.259e-05, "MEAN_MOTION_DDOT": 0}, "tle": {"line1": "1 33745U 99025DJJ 25347.05529252  .00004259  00000+0  19074-2 0  9990", "line2": "2 33745  99.1146  24.2285 0054102 265.2923  94.2073 14.22320724660068"}}, "geometry": {"type": "Point", "coordinates": [-149.00356636963403, 17.38998919208376]}}, {"type": "Feature", "properties": {"norad_id": 33747, "name": "FENGYUN 1C DEB", "group": "fengyun-1c-debris", "lat": 6.877054846236835, "lon": 84.48244801085062, "alt_km": 897.2971100141622, "timestamp": "2025-12-16T19:34:24.554812+00:00", "meta": {"OBJECT_NAME": "FENGYUN 1C DEB", "OBJECT_ID": "1999-025DJL", "EPOCH": "2025-12-07T00:03:01.560960", "MEAN_MOTION": 14.17338054, "ECCENTRICITY": 0.00899301, "INCLINATION": 99.098, "RA_OF_ASC_NODE": 75.547, "ARG_OF_PERICENTER": 232.9564, "MEAN_ANOMALY": 126.336, "EPHEMERIS_TYPE": 0, "CLASSIFICATION_TYPE": "U", "NORAD_CAT_ID": 33747, "ELEMENT_SET_NO": 999, "REV_AT_EPOCH": 90051, "BSTAR": 0.0039970984, "MEAN_MOTION_DOT": 8.373e-05, "MEAN_MOTION_DDOT": 0}, "tle": {"line1": "1 33747U 99025DJL 25341.00210140  .00008373  00000+0  39971-2 0  9993", "line2": "2 33747  99.0980  75.5470 0089930 232.9564 126.3360 14.17338054900511"}}, "geometry": {"type": "Point", "coordinates": [84.48244801085062, 6.877054846236835]}}, {"type": "Feature", "properties": {"norad_id": 33748, "name": "FENGYUN 1C DEB", "group": "fengyun-1c-debris", "lat": -61.31647346808295, "lon": -154.10337107128257, "alt_km": 767.0279462479612, "timestamp": "2025-12-16T19:34:24.554822+00:00", "meta": {"OBJECT_NAME": "FENGYUN 1C DEB", "OBJECT_ID": "1999-025DJM", "EPOCH": "2025-12-15T02:12:21.104352", "MEAN_MOTION": 14.32300991, "ECCENTRICITY": 0.00346473, "INCLINATION": 98.5868, "RA_OF_ASC_NODE": 40.2222, "ARG_OF_PERICENTER": 233.9684, "MEAN_ANOMALY": 125.8288, "EPHEMERIS_TYPE": 0, "CLASSIFICATION_TYPE": "U", "NORAD_CAT_ID": 33748, "ELEMENT_SET_NO": 999, "REV_AT_EPOCH": 91427, "BSTAR": 0.0010114459, "MEAN_MOTION_DOT": 2.705e-05, "MEAN_MOTION_DDOT": 0}, "tle": {"line1": "1 33748U 99025DJM 25349.09191093  .00002705  00000+0  10114-2 0  9997", "line2": "2 33748  98.5868  40.2222 0034647 233.9684 125.8288 14.32300991914271"}}, "geometry": {"type": "Point", "coordinates": [-154.10337107128257, -61.31647346808295]}}, {"type": "Feature", "properties": {"norad_id": 35088, "name": "FENGYUN 1C DEB", "group": "fengyun-1c-debris", "lat": 20.086636355682923, "lon": 162.72536588467264, "alt_km": 1042.4328288333263, "timestamp": "2025-12-16T19:34:24.554832+00:00", "meta": {"OBJECT_NAME": "FENGYUN 1C DEB", "OBJECT_ID": "1999-025DJQ", "EPOCH": "2025-12-12T18:31:51.390912", "MEAN_MOTION": 14.1194857, "ECCENTRICITY": 0.02676008, "INCLINATION": 94.6219, "RA_OF_ASC_NODE": 162.3279, "ARG_OF_PERICENTER": 203.3469, "MEAN_ANOMALY": 155.5376, "EPHEMERIS_TYPE": 0, "CLASSIFICATION_TYPE": "U", "NORAD_CAT_ID": 35088, "ELEMENT_SET_NO": 999, "REV_AT_EPOCH": 58800, "BSTAR": 0.010610685, "MEAN_MOTION_DOT": 0.0002728, "MEAN_MOTION_DDOT": 0}, "tle": {"line1": "1 35088U 99025DJQ 25346.77212258  .00027280  00000+0  10611-1 0  9991", "line2": "2 35088  94.6219 162.3279 0267600 203.3469 155.5376 14.11948570588008"}}, "geometry": {"type": "Point", "coordinates": [162.72536588467264, 20.086636355682923]}}, {"type": "Feature", "properties": {"norad_id": 35089, "name": "FENGYUN 1C DEB", "group": "fengyun-1c-debris", "lat": 36.403436940828, "lon": -5.858243177757762, "alt_km": 804.6023354434965, "timestamp": "2025-12-16T19:34:24.554843+00:00", "meta": {"OBJECT_NAME": "FENGYUN 1C DEB", "OBJECT_ID": "1999-025DJR", "EPOCH": "2025-12-15T18:01:27.990624", "MEAN_MOTION": 14.19424598, "ECCENTRICITY": 0.00290499, "INCLINATION": 98.5597, "RA_OF_ASC_NODE": 359.4892, "ARG_OF_PERICENTER": 56.3918, "MEAN_ANOMALY": 304.0025, "EPHEMERIS_TYPE": 0, "CLASSIFICATION_TYPE": "U", "NORAD_CAT_ID": 35089, "ELEMENT_SET_NO": 999, "REV_AT_EPOCH": 60918, "BSTAR": 0.0005166736, "MEAN_MOTION_DOT": 1.049e-05, "MEAN_MOTION_DDOT": 0}, "tle": {"line1": "1 35089U 99025DJR 25349.75101841  .00001049  00000+0  51667-3 0  9991", "line2": "2 35089  98.5597 359.4892 0029049  56.3918 304.0025 14.19424598609181"}}, "geometry": {"type": "Point", "coordinates": [-5.858243177757762, 36.403436940828]}}, {"type": "Feature", "properties": {"norad_id": 35090, "name": "FENGYUN 1C DEB", "group": "fengyun-1c-debris", "lat": -28.281773894226106, "lon": 8.656655484532623, "alt_km": 805.526786216542, "timestamp": "2025-12-16T19:34:24.554853+00:00", "meta": {"OBJECT_NAME": "FENGYUN 1C DEB", "OBJECT_ID": "1999-025DJS", "EPOCH": "2025-12-15T11:31:21.871200", "MEAN_MOTION": 14.17610468, "ECCENTRICITY": 0.00548506, "INCLINATION": 99.1994, "RA_OF_ASC_NODE": 2.2725, "ARG_OF_PERICENTER": 7.0781, "MEAN_ANOMALY": 353.1155, "EPHEMERIS_TYPE": 0, "CLASSIFICATION_TYPE": "U", "NORAD_CAT_ID": 35090, "ELEMENT_SET_NO": 999, "REV_AT_EPOCH": 66289, "BSTAR": 0.0011364277, "MEAN_MOTION_DOT": 2.298e-05, "MEAN_MOTION_DDOT": 0}, "tle": {"line1": "1 35090U 99025DJS 25349.48011425  .00002298  00000+0  11364-2 0  9997", "line2": "2 35090  99.1994   2.2725 0054850   7.0781 353.1155 14.17610468662895"}}, "geometry": {"type": "Point", "coordinates": [8.656655484532623, -28.281773894226106]}}, {"type": "Feature", "properties": {"norad_id": 35091, "name": "FENGYUN 1C DEB", "group": "fengyun-1c-debris", "lat": -48.76241278683912, "lon": -94.66733554864257, "alt_km": 672.2965826632826, "timestamp": "2025-12-16T19:34:24.554863+00:00", "meta": {"OBJECT_NAME": "FENGYUN 1C DEB", "OBJECT_ID": "1999-025DJT", "EPOCH": "2025-12-15T06:22:39.484992", "MEAN_MOTION": 14.6163127, "ECCENTRICITY": 0.00488002, "INCLINATION": 98.5965, "RA_OF_ASC_NODE": 93.6595, "ARG_OF_PERICENTER": 283.9762, "MEAN_ANOMALY": 75.6014, "EPHEMERIS_TYPE": 0, "CLASSIFICATION_TYPE": "U", "NORAD_CAT_ID": 35091, "ELEMENT_SET_NO": 999, "REV_AT_EPOCH": 89964, "BSTAR": 0.0016922781, "MEAN_MOTION_DOT": 8.515e-05, "MEAN_MOTION_DDOT": 0}, "tle": {"line1": "1 35091U 99025DJT 25349.26573478  .00008515  00000+0  16923-2 0  9999", "line2": "2 35091  98.5965  93.6595 0048800 283.9762  75.6014 14.61631270899646"}}, "geometry": {"type": "Point", "coordinates": [-94.66733554864257, -48.76241278683912]}}, {"type": "Feature", "properties": {"norad_id": 35102, "name": "FENGYUN 1C DEB", "group": "fengyun-1c-debris", "lat": -79.30347642713598, "lon": 128.80694699010795, "alt_km": 846.2850119725581, "timestamp": "2025-12-16T19:34:24.554873+00:00", "meta": {"OBJECT_NAME": "FENGYUN 1C DEB", "OBJECT_ID": "1999-025DKE", "EPOCH": "2025-12-13T06:19:02.409312", "MEAN_MOTION": 14.28874039, "ECCENTRICITY": 0.00607637, "INCLINATION": 98.4802, "RA_OF_ASC_NODE": 357.5239, "ARG_OF_PERICENTER": 90.2418, "MEAN_ANOMALY": 270.5727, "EPHEMERIS_TYPE": 0, "CLASSIFICATION_TYPE": "U", "NORAD_CAT_ID": 35102, "ELEMENT_SET_NO": 999, "REV_AT_EPOCH": 64920, "BSTAR": 0.00073405609, "MEAN_MOTION_DOT": 1.848e-05, "MEAN_MOTION_DDOT": 0}, "tle": {"line1": "1 35102U 99025DKE 25347.26322233  .00001848  00000+0  73406-3 0  9993", "line2": "2 35102  98.4802 357.5239 0060763  90.2418 270.5727 14.28874039649201"}}, "geometry": {"type": "Point", "coordinates": [128.80694699010795, -79.30347642713598]}}, {"type": "Feature", "properties": {"norad_id": 35104, "name": "FENGYUN 1C DEB", "group": "fengyun-1c-debris", "lat": -56.88240938182926, "lon": 10.811464633226644, "alt_km": 853.6607251582891, "timestamp": "2025-12-16T19:34:24.554883+00:00", "meta": {"OBJECT_NAME": "FENGYUN 1C DEB", "OBJECT_ID": "1999-025DKG", "EPOCH": "2025-12-15T19:19:01.741728", "MEAN_MOTION": 14.2033382, "ECCENTRICITY": 0.00313384, "INCLINATION": 98.596, "RA_OF_ASC_NODE": 356.4216, "ARG_OF_PERICENTER": 132.2793, "MEAN_ANOMALY": 44.9533, "EPHEMERIS_TYPE": 0, "CLASSIFICATION_TYPE": "U", "NORAD_CAT_ID": 35104, "ELEMENT_SET_NO": 999, "REV_AT_EPOCH": 89810, "BSTAR": 0.00039179162, "MEAN_MOTION_DOT": 8e-06, "MEAN_MOTION_DDOT": 0}, "tle": {"line1": "1 35104U 99025DKG 25349.80488127  .00000800  00000+0  39179-3 0  9998", "line2": "2 35104  98.5960 356.4216 0031338 132.2793  44.9533 14.20333820898104"}}, "geometry": {"type": "Point", "coordinates": [10.811464633226644, -56.88240938182926]}}, {"type": "Feature", "properties": {"norad_id": 35105, "name": "FENGYUN 1C DEB", "group": "fengyun-1c-debris", "lat": -13.768162032962382, "lon": -25.70563492970111, "alt_km": 699.95300674378, "timestamp": "2025-12-16T19:34:24.554893+00:00", "meta": {"OBJECT_NAME": "FENGYUN 1C DEB", "OBJECT_ID": "1999-025DKH", "EPOCH": "2025-12-14T04:30:14.684544", "MEAN_MOTION": 14.45384456, "ECCENTRICITY": 0.01127493, "INCLINATION": 98.9443, "RA_OF_ASC_NODE": 329.315, "ARG_OF_PERICENTER": 50.1659, "MEAN_ANOMALY": 310.9387, "EPHEMERIS_TYPE": 0, "CLASSIFICATION_TYPE": "U", "NORAD_CAT_ID": 35105, "ELEMENT_SET_NO": 999, "REV_AT_EPOCH": 94514, "BSTAR": 0.00047927589, "MEAN_MOTION_DOT": 1.77e-05, "MEAN_MOTION_DDOT": 0}, "tle": {"line1": "1 35105U 99025DKH 25348.18766996  .00001770  00000+0  47928-3 0  9990", "line2": "2 35105  98.9443 329.3150 0112749  50.1659 310.9387 14.45384456945144"}}, "geometry": {"type": "Point", "coordinates": [-25.70563492970111, -13.768162032962382]}}]}